{
  "norad_id": 58236,
  "name": "STARLINK-30853",
  "history": [
    {
      "epoch": "2026-03-28T15:39:37.365984",
      "apogee_km": 486.3856308262084,
      "perigee_km": 484.6032830094746,
      "latitude_deg": -1.4449879643260832,
      "longitude_deg": 66.24151776009239,
      "semi_major_axis_km": 6863.631456917841,
      "eccentricity": 0.00012984,
      "inclination_deg": 43.0013,
      "raan_deg": 178.2268,
      "arg_perigee_deg": 261.6987,
      "mean_anomaly_deg": 98.3717,
      "mean_motion_rev_day": 15.26763708
    }
  ]
}